ARIANE 40 R/B           
1 20443U 90005H   26022.39299553  .00000654  00000+0  22170-3 0  9993
2 20443  98.3180  84.4107 0009726 350.9543   9.1469 14.39834412886146
DELTA 2 R/B(1)          
1 20453U 90008B   26022.53082910  .00066916  00000+0  94577-3 0  9993
2 20453  35.6056 116.3177 0100743 191.4690 168.3744 15.49562385918955
COSMOS 2058             
1 20465U 90010A   26022.22884133  .00005440  00000+0  32475-3 0  9996
2 20465  82.4660  93.1968 0011182 128.3358 231.8878 15.10885520935227
SL-14 R/B               
1 20466U 90010B   26022.28300043  .00000904  00000+0  10658-3 0  9995
2 20466  82.5046 310.9739 0021413  92.4752 267.8915 14.83519343921604
SL-14 R/B               
1 20511U 90018B   26022.39105671  .00000765  00000+0  93143-4 0  9992
2 20511  82.5204 266.3732 0015028 242.3750 117.5939 14.82094965915727
HST                     
1 20580U 90037B   26022.21199641  .00010127  00000+0  34472-3 0  9992
2 20580  28.4682 356.8795 0001648 319.5889  40.4584 15.28679599766197
SL-16 R/B               
1 20625U 90046B   26022.46468212 -.00000137  00000+0 -46199-4 0  9994
2 20625  70.9994  34.9929 0013895   4.1270 355.9965 14.15007922841850
COSMOS 2084             
1 20663U 90055A   26022.49270513  .00004399  00000+0  31778-3 0  9992
2 20663  62.7908 133.1037 0024723 181.0341 179.0713 15.05323300929364
SL-6 R/B(2)             
1 20666U 90055D   26022.47953490  .00003890  00000+0  29880-3 0  9991
2 20666  62.7836  50.9636 0018070 332.1988  27.8143 15.03313022931247
SL-8 R/B                
1 20775U 90078B   26022.25085229  .00020122  00000+0  60406-3 0  9995
2 20775  82.9052 293.0172 0368366 169.5845 191.3288 14.87405923802390
SL-8 R/B                
1 21088U 91006B   26022.49355528  .00000013  00000+0 -21423-5 0  9999
2 21088  82.9410 204.3966 0022824 161.7883 227.2933 13.77491892757713
OKEAN-3                 
1 21397U 91039A   26022.45881226  .00004651  00000+0  33026-3 0  9994
2 21397  82.5155  21.6178 0015910 122.9462 237.3297 15.04409382858085
COSMOS 2151             
1 21422U 91042A   26022.45466867  .00003426  00000+0  27385-3 0  9997
2 21422  82.4986 128.2656 0011955 209.8905 150.1637 14.99896347856264
SL-14 R/B               
1 21423U 91042B   26022.36688057  .00000741  00000+0  90772-4 0  9993
2 21423  82.4918 263.6301 0018000  37.3780 322.8682 14.81782919846216
ERS-1                   
1 21574U 91050A   26022.47200957  .00000660  00000+0  22572-3 0  9992
2 21574  98.7897  39.5452 0031580 341.2945  18.7079 14.39404909809082
ARIANE 40 R/B           
1 21610U 91050F   26022.42476514  .00000707  00000+0  22435-3 0  9992
2 21610  98.2106  76.3761 0002758 192.5233 167.5890 14.42853313812321
INTERCOSMOS 25          
1 21819U 91086A   26022.33900212  .00001401  00000+0  27647-3 0  9991
2 21819  82.6093 338.0192 1486078 216.8147 132.1344 12.11868894491077
SL-8 R/B                
1 21876U 92008B   26022.49671575  .00000131  00000+0  11934-3 0  9994
2 21876  82.9288 302.1367 0033307 263.8023 270.9127 13.75967573703062
SL-8 R/B                
1 21938U 92020B   26022.50343968  .00000196  00000+0  18684-3 0  9991
2 21938  82.9302 188.0458 0030149  67.8837 356.9526 13.75540502694781
USA 81                  
1 21949U 92023A   26022.34283587  .00000410  00000+0  14445-3 0  9998
2 21949  85.0110 158.1619 0002039 115.7725 244.3679 14.32346806 88159
COSMOS 2219             
1 22219U 92076A   26022.47020402 -.00000086  00000+0 -20310-4 0  9996
2 22219  71.0614 114.6927 0020839 271.1698  88.7037 14.14081281711847
SL-16 R/B               
1 22220U 92076B   26022.18147203 -.00000096  00000+0 -24200-4 0  9998
2 22220  71.0005 286.3434 0012520 176.7295 296.7187 14.16850672715249
COSMOS 2221             
1 22236U 92080A   26022.28804913  .00004071  00000+0  36034-3 0  9991
2 22236  82.5069 323.5115 0014496 356.2884   3.8227 14.95974976773850
SL-16 R/B               
1 22285U 92093B   26022.45046289  .00000224  00000+0  13898-3 0  9991
2 22285  71.0222 101.3377 0004231 345.5510  14.5491 14.15442233706613
COSMOS 2228             
1 22286U 92094A   26022.46838784  .00003911  00000+0  33685-3 0  9995
2 22286  82.5181 281.5651 0019596  96.3065 264.0390 14.96960089769147
SL-16 R/B               
1 22566U 93016B   26022.48626832  .00000328  00000+0  19286-3 0  9992
2 22566  71.0087 312.2244 0009137  22.2974 337.8545 14.15295702695630
COSMOS 2242             
1 22626U 93024A   26022.49793207  .00003563  00000+0  31186-3 0  9997
2 22626  82.5215 310.8874 0018089  99.1016 261.2253 14.96323183773486
SL-16 R/B               
1 22803U 93059B   26022.52840891 -.00000026  00000+0  10914-4 0  9997
2 22803  70.9908 108.4755 0019575 279.3332  80.5579 14.17223818672990
ARIANE 40 R/B           
1 22830U 93061H   26022.47039946  .00000505  00000+0  20071-3 0  9990
2 22830  98.5012  92.2477 0011647  64.5521 295.6867 14.32832363687486
COSMOS 2278             
1 23087U 94023A   26022.41484277  .00000046  00000+0  48753-4 0  9997
2 23087  71.0539 271.9133 0006390 102.0601 258.1238 14.14366773638267
SL-16 R/B               
1 23088U 94023B   26022.48230833 -.00000027  00000+0  10494-4 0  9993
2 23088  70.9999 167.9256 0003940 328.9527  31.1362 14.15007042639552
SL-16 R/B               
1 23343U 94074B   26022.31707451  .00000925  00000+0  13084-3 0  9993
2 23343  97.7166  55.0016 0007075  24.3203 346.1916 14.79345160680399
SL-16 R/B               
1 23405U 94077B   26022.48196617  .00000045  00000+0  47323-4 0  9996
2 23405  70.9831  89.7040 0004846 253.0272 107.0320 14.15558697609699
ARIANE 40+ R/B          
1 23561U 95021B   26022.45289050  .00000665  00000+0  22638-3 0  9999
2 23561  98.4589  94.5401 0005625 281.6336  88.8375 14.39733167612598
SL-16 R/B               
1 23705U 95058B   26022.41599247 -.00000173  00000+0 -63931-4 0  9995
2 23705  71.0212 277.4067 0013264 200.5832 159.4759 14.15489265561301
SL-16 R/B               
1 24298U 96051B   26022.42376556  .00000102  00000+0  81656-4 0  9998
2 24298  70.7583 273.1696 0018600 210.9456 149.0569 14.12402668515114
ORBVIEW 2 (SEASTAR)     
1 24883U 97037A   26022.34420750  .00000625  00000+0  23385-3 0  9994
2 24883  98.8489 185.4489 0002191 171.9464 188.1756 14.35453434501825
SL-16 R/B               
1 25400U 98043G   26022.49373058  .00000164  00000+0  87460-4 0  9995
2 25400  98.8183 335.5519 0010416 143.3060 216.8834 14.26036988432402
SL-16 R/B               
1 25407U 98045B   26022.16717143  .00000345  00000+0  19814-3 0  9993
2 25407  71.0112 279.4105 0005196  99.7364 260.4347 14.16184912420514
ISS (ZARYA)             
1 25544U 98067A   26022.23890398  .00015740  00000+0  28748-3 0  9992
2 25544  51.6328 301.9816 0007710  45.6250 314.5369 15.49550203549139
CZ-4B R/B               
1 25732U 99025C   26022.37568956  .00000152  00000+0  94094-4 0  9992
2 25732  98.6712  67.7356 0038094 117.5107 253.3977 14.18254705381605
OKEAN-O                 
1 25860U 99039A   26022.41685236  .00001625  00000+0  22049-3 0  9991
2 25860  97.9538  82.7556 0001839 101.3656 258.7763 14.80247621427545
SL-16 R/B               
1 25861U 99039B   26022.44054534  .00001181  00000+0  15668-3 0  9992
2 25861  98.0063  81.5828 0015845  51.0757 309.1865 14.81656645430016
DELTA 2 R/B             
1 25876U 99041E   26022.49636766  .00003764  00000+0  64238-3 0  9995
2 25876  51.7629 125.7358 0503129 211.9454 145.0040 14.11604880356503
HELIOS 1B               
1 25977U 99064A   26022.43658854  .00003046  00000+0  34255-3 0  9997
2 25977  98.1738 283.3119 0001076 136.9083 223.2217 14.87481784678382
TERRA                   
1 25994U 99068A   26022.49505199  .00000964  00000+0  20578-3 0  9998
2 25994  97.9687  77.6720 0001824   3.4046 105.2496 14.60956908388338
SL-16 R/B               
1 26070U 00006B   26022.45306722  .00000084  00000+0  67003-4 0  9993
2 26070  71.0003 195.0534 0018730 253.8170 106.0892 14.15812888342012
TITAN 4B R/B            
1 26474U 00047B   26022.50838703  .00005557  00000+0  35202-3 0  9996
2 26474  67.9891 170.3278 0036871  93.3468 267.1900 15.09135464385943
ENVISAT                 
1 27386U 02009A   26022.45246554  .00000265  00000+0  99565-4 0  9994
2 27386  98.3655 337.1733 0001210  91.6688  18.4193 14.39016974252529
IDEFIX & ARIANE 42P R/B 
1 27422U 02021B   26022.34815713  .00000617  00000+0  25106-3 0  9996
2 27422  98.5829 321.5220 0011318 329.3702  30.6819 14.30986731237398
AQUA                    
1 27424U 02022A   26022.49486490  .00002153  00000+0  44069-3 0  9997
2 27424  98.4099 349.0485 0001970  69.5876  43.4746 14.61847233261984
CZ-4B R/B               
1 27432U 02024C   26022.37868207  .00000141  00000+0  95607-4 0  9995
2 27432  98.8935  75.9965 0050658 153.6160 217.7983 14.14538107222691
MIDORI II (ADEOS-II)    
1 27597U 02056A   26022.45994776  .00000643  00000+0  27084-3 0  9992
2 27597  98.7695 340.6428 0001914 108.2384 251.9006 14.29243522203691
H-2A R/B                
1 27601U 02056E   26022.51758634  .00000668  00000+0  24923-3 0  9992
2 27601  98.3123 344.6649 0069258 299.8138 171.7011 14.33720244207490
CZ-4B R/B               
1 28059U 03049C   26022.44600089  .00000864  00000+0  20959-3 0  9998
2 28059  98.6827  15.5567 0048534  14.2039 346.0509 14.54959780179879
CZ-2C R/B               
1 28222U 04012C   26022.41448767  .00050047  00000+0  63241-3 0  9990
2 28222  97.7338  83.4905 0017141 119.8989 240.3972 15.59221250197054
SL-16 R/B               
1 28353U 04021B   26022.28159716 -.00000118  00000+0 -36529-4 0  9999
2 28353  71.0028 329.8845 0002700 127.1868 232.9501 14.14592361116277
CZ-4B R/B               
1 28415U 04035C   26022.36677776  .00010263  00000+0  37015-3 0  9993
2 28415  97.3562  57.1798 0034008 131.1427 229.2757 15.28157160172836
CZ-2C R/B               
1 28480U 04046B   26022.48756668  .00000369  00000+0  15283-3 0  9997
2 28480  98.2001 300.3384 0138360 291.7628  66.8877 14.26970752101918
